*******************************************************************************
Ephemeris / WWW_USER Fri Mar  7 11:14:26 2025 Pasadena, USA      / Horizons    
*******************************************************************************
Target body name: (2018 VX1)                      {source: JPL#7}
Center body name: Earth (399)                     {source: DE441}
Center-site name: Mauna Kea
*******************************************************************************
Start time      : A.D. 2018-Aug-18 04:58:00.0000 UT      
Stop  time      : A.D. 2018-Aug-18 15:53:00.0000 UT      
Step-size       : 1 minutes
*******************************************************************************
Target pole/equ : undefined
Target radii    : undefined                                                    
Center geodetic : 204.5278, 19.8260847, 4.21024   {E-lon(deg),Lat(deg),Alt(km)}
Center cylindric: 204.5278, 6006.35451, 2151.0229 {E-lon(deg),Dxy(km),Dz(km)}
Center pole/equ : ITRF93                          {East-longitude positive}
Center radii    : 6378.137, 6378.137, 6356.752 km {Equator_a, b, pole_c}       
Target primary  : Sun
Vis. interferer : MOON (R_eq= 1737.400) km        {source: DE441}
Rel. light bend : Sun                             {source: DE441}
Rel. lght bnd GM: 1.3271E+11 km^3/s^2                                          
Small-body perts: Yes                             {source: SB441-N16}
Atmos refraction: NO (AIRLESS)
RA format       : HMS
Time format     : CAL 
Calendar mode   : Mixed Julian/Gregorian
RTS-only print  : NO       
EOP file        : eop.250306.p250602                                           
EOP coverage    : DATA-BASED 1962-JAN-20 TO 2025-MAR-06. PREDICTS-> 2025-JUN-01
Units conversion: 1 au= 149597870.700 km, c= 299792.458 km/s, 1 day= 86400.0 s 
Table cut-offs 1: Elevation (-90.0deg=NO ),Airmass (>38.000=NO), Daylight (YES)
Table cut-offs 2: Solar elongation (  0.0,180.0=NO ),Local Hour Angle( 0.0=NO )
Table cut-offs 3: RA/DEC angular rate (     0.0=NO )                           
*******************************************************************************
Initial IAU76/J2000 heliocentric ecliptic osculating elements (au, days, deg.):
  EPOCH=  2458429.5 ! 2018-Nov-07.00 (TDB)         Residual RMS= .34243        
   EC= .3094465550301519   QR= .9449639043218054   TP= 2458464.0659233886      
   OM= 45.67874041641947   W=  38.97310343924259   IN= 3.356915226222919       
  Equivalent ICRF heliocentric cartesian coordinates (au, au/d):
   X= 7.224620352366717E-01  Y= 6.383229877646874E-01  Z= 2.747435985069854E-01
  VX=-1.546092850205216E-02 VY= 1.016746642579675E-02 VZ= 5.632057443641291E-03
Asteroid physical parameters (km, seconds, rotational period in hours):        
   GM= n.a.                RAD= n.a.               ROTPER= n.a.                
   H= 27.5                 G= .150                 B-V= n.a.                   
                           ALBEDO= n.a.            STYP= n.a.                  
*******************************************************************************
 Date__(UT)__HR:MN     R.A._________(ICRF)_________DEC
******************************************************
$$SOE
 2018-Aug-18 07:01  m  00 49 05.697619 -05 14 08.44798
 2018-Aug-18 07:02  m  00 49 05.747030 -05 14 08.43978
 2018-Aug-18 07:03  m  00 49 05.796416 -05 14 08.43158
 2018-Aug-18 07:04  m  00 49 05.845778 -05 14 08.42340
 2018-Aug-18 07:05  m  00 49 05.895115 -05 14 08.41522
 2018-Aug-18 07:06  m  00 49 05.944428 -05 14 08.40706
 2018-Aug-18 07:07  m  00 49 05.993716 -05 14 08.39890
 2018-Aug-18 07:08  m  00 49 06.042979 -05 14 08.39075
 2018-Aug-18 07:09  m  00 49 06.092218 -05 14 08.38261
 2018-Aug-18 07:10  m  00 49 06.141432 -05 14 08.37448
 2018-Aug-18 07:11  m  00 49 06.190622 -05 14 08.36635
 2018-Aug-18 07:12  m  00 49 06.239787 -05 14 08.35823
 2018-Aug-18 07:13  m  00 49 06.288927 -05 14 08.35012
 2018-Aug-18 07:14  m  00 49 06.338042 -05 14 08.34202
 2018-Aug-18 07:15  m  00 49 06.387133 -05 14 08.33393
 2018-Aug-18 07:16  m  00 49 06.436199 -05 14 08.32584
 2018-Aug-18 07:17  m  00 49 06.485241 -05 14 08.31776
 2018-Aug-18 07:18  m  00 49 06.534257 -05 14 08.30969
 2018-Aug-18 07:19  m  00 49 06.583250 -05 14 08.30162
 2018-Aug-18 07:20  m  00 49 06.632217 -05 14 08.29357
 2018-Aug-18 07:21  m  00 49 06.681160 -05 14 08.28551
 2018-Aug-18 07:22  r  00 49 06.730078 -05 14 08.27747
 2018-Aug-18 07:23  m  00 49 06.778971 -05 14 08.26943
 2018-Aug-18 07:24  m  00 49 06.827840 -05 14 08.26140
 2018-Aug-18 07:25  m  00 49 06.876683 -05 14 08.25337
 2018-Aug-18 07:26  m  00 49 06.925503 -05 14 08.24535
 2018-Aug-18 07:27  m  00 49 06.974297 -05 14 08.23733
 2018-Aug-18 07:28  m  00 49 07.023067 -05 14 08.22932
 2018-Aug-18 07:29  m  00 49 07.071812 -05 14 08.22132
 2018-Aug-18 07:30  m  00 49 07.120532 -05 14 08.21332
 2018-Aug-18 07:31  m  00 49 07.169228 -05 14 08.20533
 2018-Aug-18 07:32  m  00 49 07.217898 -05 14 08.19734
 2018-Aug-18 07:33  m  00 49 07.266545 -05 14 08.18936
 2018-Aug-18 07:34  m  00 49 07.315166 -05 14 08.18138
 2018-Aug-18 07:35  m  00 49 07.363763 -05 14 08.17341
 2018-Aug-18 07:36  m  00 49 07.412335 -05 14 08.16544
 2018-Aug-18 07:37  m  00 49 07.460882 -05 14 08.15747
 2018-Aug-18 07:38  m  00 49 07.509405 -05 14 08.14951
 2018-Aug-18 07:39  m  00 49 07.557903 -05 14 08.14156
 2018-Aug-18 07:40  m  00 49 07.606376 -05 14 08.13360
 2018-Aug-18 07:41  m  00 49 07.654825 -05 14 08.12565
 2018-Aug-18 07:42  m  00 49 07.703249 -05 14 08.11771
 2018-Aug-18 07:43  m  00 49 07.751648 -05 14 08.10977
 2018-Aug-18 07:44  m  00 49 07.800022 -05 14 08.10183
 2018-Aug-18 07:45  m  00 49 07.848372 -05 14 08.09390
 2018-Aug-18 07:46  m  00 49 07.896698 -05 14 08.08596
 2018-Aug-18 07:47  m  00 49 07.944998 -05 14 08.07804
 2018-Aug-18 07:48  m  00 49 07.993274 -05 14 08.07011
 2018-Aug-18 07:49  m  00 49 08.041526 -05 14 08.06219
 2018-Aug-18 07:50  m  00 49 08.089752 -05 14 08.05427
 2018-Aug-18 07:51  m  00 49 08.137955 -05 14 08.04635
 2018-Aug-18 07:52  m  00 49 08.186132 -05 14 08.03843
 2018-Aug-18 07:53  m  00 49 08.234285 -05 14 08.03052
 2018-Aug-18 07:54  m  00 49 08.282414 -05 14 08.02261
 2018-Aug-18 07:55  m  00 49 08.330518 -05 14 08.01470
 2018-Aug-18 07:56  m  00 49 08.378597 -05 14 08.00679
 2018-Aug-18 07:57  m  00 49 08.426652 -05 14 07.99888
 2018-Aug-18 07:58  m  00 49 08.474682 -05 14 07.99098
 2018-Aug-18 07:59  m  00 49 08.522688 -05 14 07.98307
 2018-Aug-18 08:00  m  00 49 08.570669 -05 14 07.97517
 2018-Aug-18 08:01  m  00 49 08.618626 -05 14 07.96727
 2018-Aug-18 08:02  m  00 49 08.666559 -05 14 07.95937
 2018-Aug-18 08:03  m  00 49 08.714467 -05 14 07.95147
 2018-Aug-18 08:04  m  00 49 08.762350 -05 14 07.94357
 2018-Aug-18 08:05  m  00 49 08.810209 -05 14 07.93567
 2018-Aug-18 08:06  m  00 49 08.858044 -05 14 07.92777
 2018-Aug-18 08:07  m  00 49 08.905854 -05 14 07.91987
 2018-Aug-18 08:08  m  00 49 08.953640 -05 14 07.91198
 2018-Aug-18 08:09  m  00 49 09.001402 -05 14 07.90408
 2018-Aug-18 08:10  m  00 49 09.049139 -05 14 07.89618
 2018-Aug-18 08:11  m  00 49 09.096852 -05 14 07.88828
 2018-Aug-18 08:12  m  00 49 09.144541 -05 14 07.88038
 2018-Aug-18 08:13  m  00 49 09.192206 -05 14 07.87248
 2018-Aug-18 08:14  m  00 49 09.239846 -05 14 07.86458
 2018-Aug-18 08:15  m  00 49 09.287462 -05 14 07.85668
 2018-Aug-18 08:16  m  00 49 09.335054 -05 14 07.84877
 2018-Aug-18 08:17  m  00 49 09.382622 -05 14 07.84087
 2018-Aug-18 08:18  m  00 49 09.430165 -05 14 07.83296
 2018-Aug-18 08:19  m  00 49 09.477685 -05 14 07.82505
 2018-Aug-18 08:20  m  00 49 09.525180 -05 14 07.81715
 2018-Aug-18 08:21  m  00 49 09.572651 -05 14 07.80924
 2018-Aug-18 08:22  m  00 49 09.620098 -05 14 07.80132
 2018-Aug-18 08:23  m  00 49 09.667521 -05 14 07.79341
 2018-Aug-18 08:24  m  00 49 09.714920 -05 14 07.78549
 2018-Aug-18 08:25  m  00 49 09.762296 -05 14 07.77757
 2018-Aug-18 08:26  m  00 49 09.809647 -05 14 07.76965
 2018-Aug-18 08:27  m  00 49 09.856974 -05 14 07.76173
 2018-Aug-18 08:28  m  00 49 09.904277 -05 14 07.75380
 2018-Aug-18 08:29  m  00 49 09.951557 -05 14 07.74587
 2018-Aug-18 08:30  m  00 49 09.998812 -05 14 07.73794
 2018-Aug-18 08:31  m  00 49 10.046044 -05 14 07.73000
 2018-Aug-18 08:32  m  00 49 10.093252 -05 14 07.72206
 2018-Aug-18 08:33  m  00 49 10.140436 -05 14 07.71412
 2018-Aug-18 08:34  m  00 49 10.187597 -05 14 07.70617
 2018-Aug-18 08:35  m  00 49 10.234734 -05 14 07.69822
 2018-Aug-18 08:36  m  00 49 10.281847 -05 14 07.69027
 2018-Aug-18 08:37  m  00 49 10.328936 -05 14 07.68231
 2018-Aug-18 08:38  m  00 49 10.376002 -05 14 07.67435
 2018-Aug-18 08:39  m  00 49 10.423045 -05 14 07.66638
 2018-Aug-18 08:40  m  00 49 10.470063 -05 14 07.65841
 2018-Aug-18 08:41  m  00 49 10.517059 -05 14 07.65044
 2018-Aug-18 08:42  m  00 49 10.564031 -05 14 07.64246
 2018-Aug-18 08:43  m  00 49 10.610979 -05 14 07.63447
 2018-Aug-18 08:44  m  00 49 10.657904 -05 14 07.62648
 2018-Aug-18 08:45  m  00 49 10.704805 -05 14 07.61849
 2018-Aug-18 08:46  m  00 49 10.751684 -05 14 07.61049
 2018-Aug-18 08:47  m  00 49 10.798538 -05 14 07.60248
 2018-Aug-18 08:48  m  00 49 10.845370 -05 14 07.59447
 2018-Aug-18 08:49  m  00 49 10.892179 -05 14 07.58646
 2018-Aug-18 08:50  m  00 49 10.938964 -05 14 07.57844
 2018-Aug-18 08:51  m  00 49 10.985726 -05 14 07.57041
 2018-Aug-18 08:52  m  00 49 11.032465 -05 14 07.56238
 2018-Aug-18 08:53  m  00 49 11.079181 -05 14 07.55434
 2018-Aug-18 08:54  m  00 49 11.125873 -05 14 07.54629
 2018-Aug-18 08:55  m  00 49 11.172543 -05 14 07.53824
 2018-Aug-18 08:56  m  00 49 11.219190 -05 14 07.53018
 2018-Aug-18 08:57  m  00 49 11.265814 -05 14 07.52211
 2018-Aug-18 08:58  m  00 49 11.312415 -05 14 07.51404
 2018-Aug-18 08:59  m  00 49 11.358993 -05 14 07.50596
 2018-Aug-18 09:00  m  00 49 11.405548 -05 14 07.49788
 2018-Aug-18 09:01  m  00 49 11.452081 -05 14 07.48978
 2018-Aug-18 09:02  m  00 49 11.498591 -05 14 07.48168
 2018-Aug-18 09:03  m  00 49 11.545078 -05 14 07.47358
